[
    {
        "Altitude(m)": 559724.6719866144,
        "Argument of Periapsis(deg)": 0.0,
        "Eccentricity": 0.0,
        "Inclination(deg)": 53.0,
        "Latitude(deg)": 52.383162573746795,
        "Longitude(deg)": -83.42060051162919,
        "Mean Anomaly(deg)": -278.1818,
        "RAAN(deg)": 300.0,
        "Satellite Name": "Starlink Shell 1 1325",
        "Satellite Number": 1325,
        "Semi-Major Axis(m)": 6931778.249405717,
        "Time(s)": 0
    },
    {
        "Altitude(m)": 559750.2975090569,
        "Argument of Periapsis(deg)": 0.00034857847951123687,
        "Eccentricity": 0.0,
        "Inclination(deg)": 53.0,
        "Latitude(deg)": 52.4953545284028,
        "Longitude(deg)": -82.45298075137478,
        "Mean Anomaly(deg)": -277.55496879644323,
        "RAAN(deg)": 299.99948122992254,
        "Satellite Name": "Starlink Shell 1 1325",
        "Satellite Number": 1325,
        "Semi-Major Axis(m)": 6931778.249405717,
        "Time(s)": 10
    },
    {
        "Altitude(m)": 559773.9436019864,
        "Argument of Periapsis(deg)": 0.0006971569590224737,
        "Eccentricity": 0.0,
        "Inclination(deg)": 53.0,
        "Latitude(deg)": 52.59890382630105,
        "Longitude(deg)": -81.48041521528995,
        "Mean Anomaly(deg)": -276.92813759288657,
        "RAAN(deg)": 299.9989624598451,
        "Satellite Name": "Starlink Shell 1 1325",
        "Satellite Number": 1325,
        "Semi-Major Axis(m)": 6931778.249405717,
        "Time(s)": 20
    },
    {
        "Altitude(m)": 559795.5960845122,
        "Argument of Periapsis(deg)": 0.0010457354385337105,
        "Eccentricity": 0.0,
        "Inclination(deg)": 53.0,
        "Latitude(deg)": 52.69373775312814,
        "Longitude(deg)": -80.50326336475588,
        "Mean Anomaly(deg)": -276.30130638932985,
        "RAAN(deg)": 299.9984436897676,
        "Satellite Name": "Starlink Shell 1 1325",
        "Satellite Number": 1325,
        "Semi-Major Axis(m)": 6931778.249405717,
        "Time(s)": 30
    },
    {
        "Altitude(m)": 559815.2419799005,
        "Argument of Periapsis(deg)": 0.0013943139180449475,
        "Eccentricity": 0.0,
        "Inclination(deg)": 53.0,
        "Latitude(deg)": 52.77978901023759,
        "Longitude(deg)": -79.52189680538183,
        "Mean Anomaly(deg)": -275.6744751857732,
        "RAAN(deg)": 299.9979249196901,
        "Satellite Name": "Starlink Shell 1 1325",
        "Satellite Number": 1325,
        "Semi-Major Axis(m)": 6931778.249405717,
        "Time(s)": 40
    },
    {
        "Altitude(m)": 559832.8695219255,
        "Argument of Periapsis(deg)": 0.0017428923975561844,
        "Eccentricity": 0.0,
        "Inclination(deg)": 53.0,
        "Latitude(deg)": 52.85699594132147,
        "Longitude(deg)": -78.53669944959321,
        "Mean Anomaly(deg)": -275.0476439822164,
        "RAAN(deg)": 299.99740614961263,
        "Satellite Name": "Starlink Shell 1 1325",
        "Satellite Number": 1325,
        "Semi-Major Axis(m)": 6931778.249405717,
        "Time(s)": 50
    },
    {
        "Altitude(m)": 559848.4681605799,
        "Argument of Periapsis(deg)": 0.002091470877067421,
        "Eccentricity": 0.0,
        "Inclination(deg)": 53.0,
        "Latitude(deg)": 52.925302743564195,
        "Longitude(deg)": -77.54806608798366,
        "Mean Anomaly(deg)": -274.4208127786597,
        "RAAN(deg)": 299.9968873795352,
        "Satellite Name": "Starlink Shell 1 1325",
        "Satellite Number": 1325,
        "Semi-Major Axis(m)": 6931778.249405717,
        "Time(s)": 60
    },
    {
        "Altitude(m)": 559862.0285672157,
        "Argument of Periapsis(deg)": 0.0024400493565786582,
        "Eccentricity": 0.0,
        "Inclination(deg)": 53.0,
        "Latitude(deg)": 52.98465966163571,
        "Longitude(deg)": -76.55640088689145,
        "Mean Anomaly(deg)": -273.79398157510303,
        "RAAN(deg)": 299.9963686094577,
        "Satellite Name": "Starlink Shell 1 1325",
        "Satellite Number": 1325,
        "Semi-Major Axis(m)": 6931778.249405717,
        "Time(s)": 70
    },
    {
        "Altitude(m)": 559873.5426390923,
        "Argument of Periapsis(deg)": 0.002788627836089895,
        "Eccentricity": 0.0,
        "Inclination(deg)": 53.0,
        "Latitude(deg)": 53.03502316298301,
        "Longitude(deg)": -75.56211733056615,
        "Mean Anomaly(deg)": -273.16715037154626,
        "RAAN(deg)": 299.99584983938024,
        "Satellite Name": "Starlink Shell 1 1325",
        "Satellite Number": 1325,
        "Semi-Major Axis(m)": 6931778.249405717,
        "Time(s)": 80
    },
    {
        "Altitude(m)": 559883.0035033141,
        "Argument of Periapsis(deg)": 0.0031372063156011316,
        "Eccentricity": 0.0,
        "Inclination(deg)": 53.0,
        "Latitude(deg)": 53.07635609299914,
        "Longitude(deg)": -74.56563658854027,
        "Mean Anomaly(deg)": -272.5403191679896,
        "RAAN(deg)": 299.9953310693028,
        "Satellite Name": "Starlink Shell 1 1325",
        "Satellite Number": 1325,
        "Semi-Major Axis(m)": 6931778.249405717,
        "Time(s)": 90
    },
    {
        "Altitude(m)": 559890.405520183,
        "Argument of Periapsis(deg)": 0.0034857847951123688,
        "Eccentricity": 0.0,
        "Inclination(deg)": 53.0,
        "Latitude(deg)": 53.10862780879257,
        "Longitude(deg)": -73.56738582822814,
        "Mean Anomaly(deg)": -271.9134879644328,
        "RAAN(deg)": 299.99481229922526,
        "Satellite Name": "Starlink Shell 1 1325",
        "Satellite Number": 1325,
        "Semi-Major Axis(m)": 6931778.249405717,
        "Time(s)": 100
    },
    {
        "Altitude(m)": 559895.7442859265,
        "Argument of Periapsis(deg)": 0.003834363274623606,
        "Eccentricity": 0.0,
        "Inclination(deg)": 53.0,
        "Latitude(deg)": 53.131814290437994,
        "Longitude(deg)": -72.5677979934937,
        "Mean Anomaly(deg)": -271.2866567608761,
        "RAAN(deg)": 299.99429352914785,
        "Satellite Name": "Starlink Shell 1 1325",
        "Satellite Number": 1325,
        "Semi-Major Axis(m)": 6931778.249405717,
        "Time(s)": 110
    },
    {
        "Altitude(m)": 559899.0166348496,
        "Argument of Periapsis(deg)": 0.004182941754134842,
        "Eccentricity": 0.0,
        "Inclination(deg)": 53.0,
        "Latitude(deg)": 53.14589822876931,
        "Longitude(deg)": -71.56731003194562,
        "Mean Anomaly(deg)": -270.65982555731944,
        "RAAN(deg)": 299.99377475907033,
        "Satellite Name": "Starlink Shell 1 1325",
        "Satellite Number": 1325,
        "Semi-Major Axis(m)": 6931778.249405717,
        "Time(s)": 120
    },
    {
        "Altitude(m)": 559900.2206408764,
        "Argument of Periapsis(deg)": 0.004531520233646079,
        "Eccentricity": 0.0,
        "Inclination(deg)": 53.0,
        "Latitude(deg)": 53.15086908896516,
        "Longitude(deg)": -70.56636109284194,
        "Mean Anomaly(deg)": -270.0329943537627,
        "RAAN(deg)": 299.99325598899287,
        "Satellite Name": "Starlink Shell 1 1325",
        "Satellite Number": 1325,
        "Semi-Major Axis(m)": 6931778.249405717,
        "Time(s)": 130
    },
    {
        "Altitude(m)": 559899.3556184731,
        "Argument of Periapsis(deg)": 0.0048800987131573164,
        "Eccentricity": 0.0,
        "Inclination(deg)": 53.0,
        "Latitude(deg)": 53.146723149379966,
        "Longitude(deg)": -69.56539221789599,
        "Mean Anomaly(deg)": -269.406163150206,
        "RAAN(deg)": 299.9927372189154,
        "Satellite Name": "Starlink Shell 1 1325",
        "Satellite Number": 1325,
        "Semi-Major Axis(m)": 6931778.249405717,
        "Time(s)": 140
    },
    {
        "Altitude(m)": 559896.4221229804,
        "Argument of Periapsis(deg)": 0.005228677192668553,
        "Eccentricity": 0.0,
        "Inclination(deg)": 53.0,
        "Latitude(deg)": 53.133463515286266,
        "Longitude(deg)": -68.56484450893308,
        "Mean Anomaly(deg)": -268.7793319466492,
        "RAAN(deg)": 299.99221844883795,
        "Satellite Name": "Starlink Shell 1 1325",
        "Satellite Number": 1325,
        "Semi-Major Axis(m)": 6931778.249405717,
        "Time(s)": 150
    },
    {
        "Altitude(m)": 559891.421950351,
        "Argument of Periapsis(deg)": 0.00557725567217979,
        "Eccentricity": 0.0,
        "Inclination(deg)": 53.0,
        "Latitude(deg)": 53.11110010740907,
        "Longitude(deg)": -67.56515729509944,
        "Mean Anomaly(deg)": -268.15250074309256,
        "RAAN(deg)": 299.9916996787604,
        "Satellite Name": "Starlink Shell 1 1325",
        "Satellite Number": 1325,
        "Semi-Major Axis(m)": 6931778.249405717,
        "Time(s)": 160
    },
    {
        "Altitude(m)": 559884.3581362546,
        "Argument of Periapsis(deg)": 0.0059258341516910265,
        "Eccentricity": 0.0,
        "Inclination(deg)": 53.0,
        "Latitude(deg)": 53.07964962535035,
        "Longitude(deg)": -66.56676782233774,
        "Mean Anomaly(deg)": -267.52566953953584,
        "RAAN(deg)": 299.99118090868296,
        "Satellite Name": "Starlink Shell 1 1325",
        "Satellite Number": 1325,
        "Semi-Major Axis(m)": 6931778.249405717,
        "Time(s)": 170
    },
    {
        "Altitude(m)": 559875.2349546078,
        "Argument of Periapsis(deg)": 0.006274412631202263,
        "Eccentricity": 0.0,
        "Inclination(deg)": 53.0,
        "Latitude(deg)": 53.03913548622152,
        "Longitude(deg)": -65.57010944909584,
        "Mean Anomaly(deg)": -266.8988383359791,
        "RAAN(deg)": 299.9906621386055,
        "Satellite Name": "Starlink Shell 1 1325",
        "Satellite Number": 1325,
        "Semi-Major Axis(m)": 6931778.249405717,
        "Time(s)": 180
    }
]